NORAD_CAT_ID,OBJECT_NAME,OBJECT_TYPE,EPOCH,MEAN_MOTION,ECCENTRICITY,INCLINATION,RA_OF_ASC_NODE,ARG_OF_PERICENTER,MEAN_ANOMALY,BSTAR,MEAN_MOTION_DOT,MEAN_MOTION_DDOT,TLE_LINE0,TLE_LINE1,TLE_LINE2,SEMIMAJOR_AXIS,PERIOD,APOGEE,PERIGEE,DECAYED
52353.0,STARLINK-3807,PAYLOAD,2024-04-12 05:52:02,15.08854474,0.0001319,53.2173,85.5862,98.6484,261.4657,0.0001659,2.354e-05,0.0,0 STARLINK-3807,1 52353U 22045Y   24103.24447364  .00002354  00000-0  16590-3 0  9993,2 52353  53.2173  85.5862 0001319  98.6484 261.4657 15.08854474110647,6917.836,95.437,540.614,538.789,0.0
52353.0,STARLINK-3807,PAYLOAD,2024-04-13 04:07:27,15.08834958,0.0001641,53.2182,81.4209,115.7382,244.378,8.6992e-05,1.097e-05,0.0,0 STARLINK-3807,1 52353U 22045Y   24104.17184807  .00001097  00000-0  86992-4 0  9993,2 52353  53.2182  81.4209 0001641 115.7382 244.3780 15.08834958110780,6917.896,95.438,540.896,538.626,0.0
52353.0,STARLINK-3807,PAYLOAD,2024-04-13 08:53:37,15.08833412,0.0001575,53.2182,80.5288,112.9156,247.2002,5.4232e-05,5.75e-06,0.0,0 STARLINK-3807,1 52353U 22045Y   24104.37056936  .00000575  00000-0  54232-4 0  9998,2 52353  53.2182  80.5288 0001575 112.9156 247.2002 15.08833412110818,6917.901,95.438,540.855,538.676,0.0
52353.0,STARLINK-3807,PAYLOAD,2024-04-14 03:58:15,15.08832937,0.0001601,53.2182,76.9616,119.4706,240.6446,-0.00015409,-2.739e-05,0.0,0 STARLINK-3807,1 52353U 22045Y   24105.16546010 -.00002739  00000-0 -15409-3 0  9991,2 52353  53.2182  76.9616 0001601 119.4706 240.6446 15.08832937110938,6917.902,95.438,540.875,538.659,0.0
52353.0,STARLINK-3807,PAYLOAD,2024-04-14 07:09:01,15.08834417,0.0001285,53.2175,76.3646,94.585,265.5289,-0.00012042,-2.204e-05,0.0,0 STARLINK-3807,1 52353U 22045Y   24105.29793955 -.00002204  00000-0 -12042-3 0  9994,2 52353  53.2175  76.3646 0001285  94.5850 265.5289 15.08834417110956,6917.897,95.438,540.651,538.874,0.0
52353.0,STARLINK-3807,PAYLOAD,2024-04-15 03:49:02,15.08832664,0.0001358,53.2178,72.4973,90.391,269.7237,0.00018571,2.668e-05,0.0,0 STARLINK-3807,1 52353U 22045Y   24106.15905558  .00002668  00000-0  18571-3 0  9999,2 52353  53.2178  72.4973 0001358  90.3910 269.7237 15.08832664111087,6917.903,95.438,540.707,538.828,0.0
52353.0,STARLINK-3807,PAYLOAD,2024-04-15 05:24:25,15.08834662,0.0001405,53.2183,72.2002,89.3008,270.8145,0.00020274,2.94e-05,0.0,0 STARLINK-3807,1 52353U 22045Y   24106.22529489  .00002940  00000-0  20274-3 0  9998,2 52353  53.2183  72.2002 0001405  89.3008 270.8145 15.08834662111095,6917.897,95.438,540.734,538.79,0.0
52353.0,STARLINK-3807,PAYLOAD,2024-04-16 03:39:50,15.08833081,0.0001649,53.2189,68.0399,80.8705,279.2474,9.5426e-05,1.231e-05,0.0,0 STARLINK-3807,1 52353U 22045Y   24107.15266579  .00001231  00000-0  95426-4 0  9993,2 52353  53.2189  68.0399 0001649  80.8705 279.2474 15.08833081111231,6917.902,95.438,540.907,538.626,0.0
52353.0,STARLINK-3807,PAYLOAD,2024-04-16 14:47:31,15.0885208,0.0001672,53.2192,65.9564,95.9885,264.1298,0.00029293,4.379e-05,0.0,0 STARLINK-3807,1 52353U 22045Y   24107.61633524  .00004379  00000-0  29293-3 0  9996,2 52353  53.2192  65.9564 0001672  95.9885 264.1298 15.08852080111302,6917.843,95.437,540.865,538.552,0.0
52353.0,STARLINK-3807,PAYLOAD,2024-04-17 06:41:22,15.08856438,0.0001838,53.2176,62.9804,103.8038,256.3158,0.00020863,3.035e-05,0.0,0 STARLINK-3807,1 52353U 22045Y   24108.27872990  .00003035  00000-0  20863-3 0  9993,2 52353  53.2176  62.9804 0001838 103.8038 256.3158 15.08856438111401,6917.83,95.437,540.967,538.424,0.0
52353.0,STARLINK-3807,PAYLOAD,2024-04-18 03:21:26,15.08803241,0.0001505,53.2181,59.1187,109.8036,250.3119,-0.00040375,-6.701e-05,0.0,0 STARLINK-3807,1 52353U 22045Y   24109.13989010 -.00006701  00000-0 -40375-3 0  9996,2 52353  53.2181  59.1187 0001505 109.8036 250.3119 15.08803241111533,6917.993,95.44,540.899,538.817,0.0
52353.0,STARLINK-3807,PAYLOAD,2024-04-18 08:07:35,15.08823365,0.0001661,53.2172,58.2248,43.5184,316.5939,0.00013034,1.786e-05,0.0,0 STARLINK-3807,1 52353U 22045Y   24109.33860868  .00001786  00000-0  13034-3 0  9995,2 52353  53.2172  58.2248 0001661  43.5184 316.5939 15.08823365111569,6917.931,95.439,540.945,538.647,0.0
52353.0,STARLINK-3807,PAYLOAD,2024-04-19 01:36:49,15.0884806,0.000123,53.2169,54.9547,72.2458,287.8668,0.00067134,0.00010415,0.0,0 STARLINK-3807,1 52353U 22045Y   24110.06723766  .00010415  00000-0  67134-3 0  9991,2 52353  53.2169  54.9547 0001230  72.2458 287.8668 15.08848060111675,6917.856,95.437,540.572,538.87,0.0
52353.0,STARLINK-3807,PAYLOAD,2024-04-20 06:13:44,15.08876858,0.0001667,53.218,49.6008,125.2597,234.8552,0.00039684,6.04e-05,0.0,0 STARLINK-3807,1 52353U 22045Y   24111.25953725  .00006040  00000-0  39684-3 0  9991,2 52353  53.2180  49.6008 0001667 125.2597 234.8552 15.08876858111858,6917.768,95.435,540.786,538.48,0.0
52353.0,STARLINK-3807,PAYLOAD,2024-04-20 20:32:11,15.08857819,0.0002375,53.2174,46.9198,118.8337,241.2894,-5.2788e-05,-1.129e-05,0.0,0 STARLINK-3807,1 52353U 22045Y   24111.85569397 -.00001129  00000-0 -52788-4 0  9991,2 52353  53.2174  46.9198 0002375 118.8337 241.2894 15.08857819111945,6917.826,95.436,541.334,538.048,0.0
52353.0,STARLINK-3807,PAYLOAD,2024-04-21 02:53:45,15.088307,0.0001345,53.2169,45.7347,87.6617,272.4529,-0.00057851,-9.481e-05,0.0,0 STARLINK-3807,1 52353U 22045Y   24112.12066314 -.00009481  00000-0 -57851-3 0  9997,2 52353  53.2169  45.7347 0001345  87.6617 272.4529 15.08830700111987,6917.909,95.438,540.704,538.843,0.0
52353.0,STARLINK-3807,PAYLOAD,2024-04-21 06:04:31,15.08830631,0.0001474,53.2174,45.1384,96.3021,263.8139,-0.00048456,-7.989e-05,0.0,0 STARLINK-3807,1 52353U 22045Y   24112.25314637 -.00007989  00000-0 -48456-3 0  9997,2 52353  53.2174  45.1384 0001474  96.3021 263.8139 15.08830631112005,6917.909,95.438,540.794,538.754,0.0
52353.0,STARLINK-3807,PAYLOAD,2024-04-22 04:19:55,15.08848552,0.0001376,53.2175,40.9767,91.289,268.826,0.00088301,0.00013796,0.0,0 STARLINK-3807,1 52353U 22045Y   24113.18050815  .00013796  00000-0  88301-3 0  9999,2 52353  53.2175  40.9767 0001376  91.2890 268.8260 15.08848552112149,6917.854,95.437,540.671,538.767,0.0
52353.0,STARLINK-3807,PAYLOAD,2024-04-23 02:35:19,15.08847214,0.0001079,53.2177,36.8134,98.3614,261.7501,0.00041033,6.25e-05,0.0,0 STARLINK-3807,1 52353U 22045Y   24114.10786851  .00006250  00000-0  41033-3 0  9996,2 52353  53.2177  36.8134 0001079  98.3614 261.7501 15.08847214112284,6917.858,95.437,540.47,538.977,0.0
52353.0,STARLINK-3807,PAYLOAD,2024-04-24 04:01:30,15.0884263,0.000199,53.2202,32.0489,56.7399,303.3784,0.00017334,2.472e-05,0.0,0 STARLINK-3807,1 52353U 22045Y   24115.16771514  .00002472  00000-0  17334-3 0  9992,2 52353  53.2202  32.0489 0001990  56.7399 303.3784 15.08842630112445,6917.872,95.437,541.114,538.361,0.0
52353.0,STARLINK-3807,PAYLOAD,2024-04-24 21:30:44,15.08847204,0.0001661,53.2199,28.7801,118.4863,241.6297,0.00025912,3.839e-05,0.0,0 STARLINK-3807,1 52353U 22045Y   24115.89635029  .00003839  00000-0  25912-3 0  9991,2 52353  53.2199  28.7801 0001661 118.4863 241.6297 15.08847204112554,6917.858,95.437,540.872,538.574,0.0
52353.0,STARLINK-3807,PAYLOAD,2024-04-25 03:52:17,15.08841625,0.000133,53.2182,27.5926,109.3374,250.7762,0.00015281,2.145e-05,0.0,0 STARLINK-3807,1 52353U 22045Y   24116.16131254  .00002145  00000-0  15281-3 0  9990,2 52353  53.2182  27.5926 0001330 109.3374 250.7762 15.08841625112593,6917.875,95.437,540.66,538.82,0.0
52353.0,STARLINK-3807,PAYLOAD,2024-04-25 21:21:31,15.08840359,0.0001398,53.2182,24.3213,119.0397,241.0735,5.0861e-05,5.22e-06,0.0,0 STARLINK-3807,1 52353U 22045Y   24116.88995344  .00000522  00000-0  50861-4 0  9998,2 52353  53.2182  24.3213 0001398 119.0397 241.0735 15.08840359112703,6917.879,95.438,540.711,538.777,0.0
52353.0,STARLINK-3807,PAYLOAD,2024-04-25 22:56:55,15.08841727,0.0001346,53.2181,24.0241,113.5801,246.5333,5.7408e-05,6.26e-06,0.0,0 STARLINK-3807,1 52353U 22045Y   24116.95619349  .00000626  00000-0  57408-4 0  9993,2 52353  53.2181  24.0241 0001346 113.5801 246.5333 15.08841727112717,6917.875,95.437,540.671,538.809,0.0
52353.0,STARLINK-3807,PAYLOAD,2024-04-26 00:32:18,15.08841876,0.0001325,53.2181,23.7266,111.9088,248.2045,5.2359e-05,5.46e-06,0.0,0 STARLINK-3807,1 52353U 22045Y   24117.02243322  .00000546  00000-0  52359-4 0  9997,2 52353  53.2181  23.7266 0001325 111.9088 248.2045 15.08841876112721,6917.875,95.437,540.656,538.823,0.0
52353.0,STARLINK-3807,PAYLOAD,2024-04-27 03:33:51,15.08843116,0.0001393,53.218,18.6845,103.1665,256.9483,0.00011786,1.588e-05,0.0,0 STARLINK-3807,1 52353U 22045Y   24118.14851363  .00001588  00000-0  11786-3 0  9996,2 52353  53.2180  18.6845 0001393 103.1665 256.9483 15.08843116112894,6917.871,95.437,540.7,538.772,0.0
52353.0,STARLINK-3807,PAYLOAD,2024-04-27 09:55:24,15.0883574,0.0001123,53.2168,17.4917,94.4633,265.6488,-7.4696e-05,-1.476e-05,0.0,0 STARLINK-3807,1 52353U 22045Y   24118.41347553 -.00001476  00000-0 -74696-4 0  9995,2 52353  53.2168  17.4917 0001123  94.4633 265.6488 15.08835740112936,6917.893,95.438,540.535,538.982,0.0
52353.0,STARLINK-3807,PAYLOAD,2024-04-27 21:03:07,15.08822264,0.0001633,53.2189,15.414,120.0878,240.0276,-0.00019971,-3.463e-05,0.0,0 STARLINK-3807,1 52353U 22045Y   24118.87716783 -.00003463  00000-0 -19971-3 0  9992,2 52353  53.2189  15.4140 0001633 120.0878 240.0276 15.08822264113006,6917.935,95.439,540.929,538.67,0.0
52353.0,STARLINK-3807,PAYLOAD,2024-04-28 09:46:11,15.08841275,0.0001287,53.2198,13.0291,84.5047,275.6092,0.00010826,1.436e-05,0.0,0 STARLINK-3807,1 52353U 22045Y   24119.40708255  .00001436  00000-0  10826-3 0  9993,2 52353  53.2198  13.0291 0001287  84.5047 275.6092 15.08841275113085,6917.876,95.437,540.632,538.851,0.0
52353.0,STARLINK-3807,PAYLOAD,2024-04-28 22:29:16,15.08842585,0.00013,53.2186,10.6519,93.852,266.262,6.9646e-05,8.21e-06,0.0,0 STARLINK-3807,1 52353U 22045Y   24119.93700217  .00000821  00000-0  69646-4 0  9993,2 52353  53.2186  10.6519 0001300  93.8520 266.2620 15.08842585113160,6917.872,95.437,540.637,538.838,0.0
